[{"OBJECT_NAME":"METEOR-M2 3","OBJECT_ID":"2023-091A","EPOCH":"2026-03-09T22:59:41.369280","MEAN_MOTION":14.24037691,"ECCENTRICITY":0.000511,"INCLINATION":98.6213,"RA_OF_ASC_NODE":125.9119,"ARG_OF_PERICENTER":98.6128,"MEAN_ANOMALY":261.563,"EPHEMERIS_TYPE":0,"CLASSIFICATION_TYPE":"U","NORAD_CAT_ID":57166,"ELEMENT_SET_NO":999,"REV_AT_EPOCH":14039,"BSTAR":2.3891208e-5,"MEAN_MOTION_DOT":1.2e-7,"MEAN_MOTION_DDOT":0},{"OBJECT_NAME":"DMSP 5D-2 F8 DEB","OBJECT_ID":"1987-053K","EPOCH":"2026-03-09T22:52:52.235904","MEAN_MOTION":14.24614522,"ECCENTRICITY":0.00199757,"INCLINATION":98.7272,"RA_OF_ASC_NODE":259.6631,"ARG_OF_PERICENTER":61.4666,"MEAN_ANOMALY":298.8521,"EPHEMERIS_TYPE":0,"CLASSIFICATION_TYPE":"U","NORAD_CAT_ID":60252,"ELEMENT_SET_NO":999,"REV_AT_EPOCH":8500,"BSTAR":0.00081992191,"MEAN_MOTION_DOT":1.865e-5,"MEAN_MOTION_DDOT":0}]
